GALAXY 18 (G-18)        
1 32951U 08024A   26073.97202346  .00000024  00000+0  00000+0 0  9999
2 32951   0.0195 108.6449 0003055 259.1238  31.7351  1.00272991 44900
BLOCK DM-SL R/B         
1 32952U 08024B   26073.82838584 -.00000006  00000+0  00000+0 0  9994
2 32952   1.2941  12.1321 6539709  96.3319 336.8206  2.14621193139639
COSMOS 1124 DEB         
1 32982U 79077H   26067.63525577  .00000253  00000+0  00000+0 0  9993
2 32982  65.3740 189.4764 6752416 331.5858   4.0902  2.09814220218806
SATCOM 3 DEB            
1 32985U 79101L   26073.69985541 -.00000018  00000+0  00000+0 0  9998
2 32985   7.6969 173.9683 4770865 289.3389  12.8237  1.80670236118930
SATCOM 3 DEB            
1 32987U 79101N   26068.62293882 -.00000084  00000+0  00000+0 0  9990
2 32987   9.8156  37.6124 4928612 198.4816 348.7653  1.83463474121068
ZHONGXING-9             
1 33051U 08028A   26072.80237488 -.00000249  00000+0  00000+0 0  9991
2 33051   0.5233  86.8156 0008374 249.5125 216.3123  1.00270101 65080
SKYNET 5C               
1 33055U 08030A   26074.27804474 -.00000139  00000+0  00000+0 0  9994
2 33055   3.5471  78.1511 0005101 291.8190 245.1964  1.00271939 65013
TURKSAT 3A              
1 33056U 08030B   26074.23308681  .00000145  00000+0  00000+0 0  9996
2 33056   0.0450  83.7470 0004747 297.9352 277.0413  1.00273258 51419
SL-23 R/B               
1 33059U 08022B   26074.25532556 -.00000133  00000+0  00000+0 0  9990
2 33059  13.5462  33.1576 0544241  53.8552 106.5221  0.95533755 62070
COSMOS 2440             
1 33108U 08033A   26073.94082332 -.00000141  00000+0  00000+0 0  9993
2 33108  10.4031  41.8601 0004763 224.5017 324.7648  1.00276225 64848
SL-12 R/B(2)            
1 33111U 08033D   26074.00144300  .00000046  00000+0  00000+0 0  9992
2 33111  10.3836  41.9945 0031476 335.5853 214.8300  1.00275619 64860
INTELSAT 25 (IS-25)     
1 33153U 08034A   26074.06146382 -.00000224  00000+0  00000+0 0  9996
2 33153   2.4631  81.4725 0003239 251.3174 190.4936  1.00270237 64756
ECHOSTAR 11             
1 33207U 08035A   26074.25984466 -.00000057  00000+0  00000+0 0  9995
2 33207   0.7603  85.3116 0002538 257.4268 173.6655  1.00272090 50277
BLOCK DM-SL R/B         
1 33208U 08035B   26074.25993133 -.00000011  00000+0 -11272-2 0  9994
2 33208   0.6382 319.3017 7135836 315.7485 321.3511  2.26262458146012
SUPERBIRD-C2            
1 33274U 08038A   26074.02176866 -.00000306  00000+0  00000+0 0  9991
2 33274   2.1164  82.4612 0001824 358.5200 235.4829  1.00274401104788
INMARSAT 4-F3           
1 33278U 08039A   26073.97696347 -.00000138  00000+0  00000+0 0  9993
2 33278   4.2124  31.2382 0002773 335.2550  59.7942  1.00271334 45601
BREEZE-M R/B            
1 33280U 08039C   26073.62104008  .00000154  00000+0  00000+0 0  9993
2 33280  23.0698  19.4867 5961631 326.8752   6.9984  2.01433594129228
